IRIDIUM 63              
1 25286U 98021B   25137.11291850  .00000425  00000+0  13810-3 0  9994
2 25286  86.3956  95.1680 0002381  83.3637 276.7831 14.36521937419655
IRIDIUM 69              
1 25319U 98026A   25136.94300054  .00000431  00000+0  12817-3 0  9996
2 25319  86.3946 108.6265 0004415 107.4602 252.7080 14.40937580418569
IRIDIUM 71              
1 25320U 98026B   25136.88456272  .00000463  00000+0  13751-3 0  9998
2 25320  86.3945 103.3460 0002814 135.7268 224.4157 14.41132519419081
IRIDIUM 73              
1 25344U 98032C   25136.76806969  .00000634  00000+0  15293-3 0  9993
2 25344  86.4423  60.1581 0002991  88.9862 271.1686 14.51680518426002
IRIDIUM 82              
1 25467U 98051A   25136.92683602  .00026728  00000+0  79142-3 0  9990
2 25467  86.3658 125.0921 0090645  56.9689 304.0226 15.30663729419170
